GLOBAL-2                
1 43812U 18099BG  26068.69955396  .00003970  00000+0  26145-3 0  9998
2 43812  97.3697 109.3280 0007454 127.1924 232.9986 15.08046936396919
STARLINK-35133          
1 65535U 25200R   26068.75727598  .00003088  00000+0  21804-3 0  9991
2 65535  97.6015 139.9050 0000249 127.2074 232.9175 15.05660939 29148
